start=new Date('2023-05-19T00:00:00.000Z').valueOf();
sats=[{"TLE_LINE1":"1 45083U 20006AR  23138.92464776  .00001892  00000-0  14588-3 0  9999","TLE_LINE2":"2 45083  53.0544 211.4579 0001169  88.8294 271.2828 15.06401409181851","GP_ID":"232112197","MEAN_ELEMENT_THEORY":"SGP4","RA_OF_ASC_NODE":"211.4579","PERIOD":"95.592","EPHEMERIS_TYPE":"0","SITE":"AFETR","ARG_OF_PERICENTER":"88.8294","APOAPSIS":"548.019","LAUNCH_DATE":"2020-01-29","MEAN_MOTION":"15.06401409","FILE":"3911388","EPOCH":"2023-05-18T22:11:29.566464","NORAD_CAT_ID":"45083","COUNTRY_CODE":"US","ECCENTRICITY":"0.00011690","DECAY_DATE":null,"PERIAPSIS":"546.400","MEAN_MOTION_DDOT":"0.0000000000000","CLASSIFICATION_TYPE":"U","BSTAR":"0.00014588000000","REF_FRAME":"TEME","CENTER_NAME":"EARTH","MEAN_MOTION_DOT":"0.00001892","MEAN_ANOMALY":"271.2828","OBJECT_ID":"2020-006AR","REV_AT_EPOCH":"18185","INCLINATION":"53.0544","ELEMENT_SET_NO":"999","TIME_SYSTEM":"UTC","SEMIMAJOR_AXIS":"6925.344","OBJECT_TYPE":"PAYLOAD","OBJECT_NAME":"STARLINK-1190","RCS_SIZE":"LARGE"},{"LAUNCH_DATE":"2020-01-29","APOAPSIS":"548.106","ARG_OF_PERICENTER":"89.4291","PERIOD":"95.592","RA_OF_ASC_NODE":"171.5366","SITE":"AFETR","EPHEMERIS_TYPE":"0","TLE_LINE1":"1 45084U 20006AS  23138.90621618  .00000700  00000-0  65894-4 0  9992","TLE_LINE2":"2 45084  53.0525 171.5366 0001291  89.4291 270.6846 15.06400541182413","MEAN_ELEMENT_THEORY":"SGP4","GP_ID":"232111947","MEAN_MOTION_DDOT":"0.0000000000000","CLASSIFICATION_TYPE":"U","CENTER_NAME":"EARTH","REF_FRAME":"TEME","BSTAR":"0.00006589400000","PERIAPSIS":"546.318","DECAY_DATE":null,"COUNTRY_CODE":"US","ECCENTRICITY":"0.00012910","FILE":"3911388","MEAN_MOTION":"15.06400541","NORAD_CAT_ID":"45084","EPOCH":"2023-05-18T21:44:57.077952","REV_AT_EPOCH":"18241","MEAN_MOTION_DOT":"0.00000700","OBJECT_ID":"2020-006AS","MEAN_ANOMALY":"270.6846","RCS_SIZE":"LARGE","OBJECT_TYPE":"PAYLOAD","SEMIMAJOR_AXIS":"6925.347","OBJECT_NAME":"STARLINK-1173","ELEMENT_SET_NO":"999","INCLINATION":"53.0525","TIME_SYSTEM":"UTC"},{"OBJECT_NAME":"STARLINK-1179","SEMIMAJOR_AXIS":"6925.345","OBJECT_TYPE":"PAYLOAD","RCS_SIZE":"LARGE","TIME_SYSTEM":"UTC","INCLINATION":"53.0527","ELEMENT_SET_NO":"999","REV_AT_EPOCH":"18235","OBJECT_ID":"2020-006AT","MEAN_ANOMALY":"276.9006","MEAN_MOTION_DOT":"0.00001936","DECAY_DATE":null,"PERIAPSIS":"546.352","BSTAR":"0.00014884000000","REF_FRAME":"TEME","CENTER_NAME":"EARTH","MEAN_MOTION_DDOT":"0.0000000000000","CLASSIFICATION_TYPE":"U","EPOCH":"2023-05-18T12:06:24.457536","NORAD_CAT_ID":"45085","MEAN_MOTION":"15.06401263","FILE":"3911221","COUNTRY_CODE":"US","ECCENTRICITY":"0.00012390","ARG_OF_PERICENTER":"83.2124","APOAPSIS":"548.068","LAUNCH_DATE":"2020-01-29","GP_ID":"232081469","MEAN_ELEMENT_THEORY":"SGP4","TLE_LINE2":"2 45085  53.0527 173.3395 0001239  83.2124 276.9006 15.06401263182359","TLE_LINE1":"1 45085U 20006AT  23138.50444974  .00001936  00000-0  14884-3 0  9991","EPHEMERIS_TYPE":"0","SITE":"AFETR","RA_OF_ASC_NODE":"173.3395","PERIOD":"95.592"},{"REV_AT_EPOCH":"18368","MEAN_MOTION_DOT":"0.24093893","MEAN_ANOMALY":"176.6782","OBJECT_ID":"2020-006AU","OBJECT_TYPE":"PAYLOAD","SEMIMAJOR_AXIS":"6553.718","OBJECT_NAME":"STARLINK-1181","RCS_SIZE":"LARGE","ELEMENT_SET_NO":"999","INCLINATION":"52.9335","TIME_SYSTEM":"UTC","APOAPSIS":"184.474","ARG_OF_PERICENTER":"185.8584","LAUNCH_DATE":"2020-01-29","TLE_LINE1":"1 45086U 20006AU  23138.79096507  .24093893  12038-4  25868-2 0  9998","TLE_LINE2":"2 45086  52.9335  99.8119 0013567 185.8584 176.6782 16.36331104183681","MEAN_ELEMENT_THEORY":"SGP4","GP_ID":"232111446","PERIOD":"88.002","RA_OF_ASC_NODE":"99.8119","SITE":"AFETR","EPHEMERIS_TYPE":"0","PERIAPSIS":"166.691","DECAY_DATE":null,"CLASSIFICATION_TYPE":"U","MEAN_MOTION_DDOT":"0.0000120380000","CENTER_NAME":"EARTH","REF_FRAME":"TEME","BSTAR":"0.00258680000000","FILE":"3911388","MEAN_MOTION":"16.36331104","NORAD_CAT_ID":"45086","EPOCH":"2023-05-18T18:58:59.382048","COUNTRY_CODE":"US","ECCENTRICITY":"0.00135670"},{"OBJECT_ID":"2020-006AV","MEAN_ANOMALY":"274.4643","MEAN_MOTION_DOT":"0.00001407","REV_AT_EPOCH":"18240","TIME_SYSTEM":"UTC","ELEMENT_SET_NO":"999","INCLINATION":"53.0532","OBJECT_NAME":"STARLINK-1185","OBJECT_TYPE":"PAYLOAD","SEMIMAJOR_AXIS":"6925.352","RCS_SIZE":"LARGE","MEAN_ELEMENT_THEORY":"SGP4","GP_ID":"232111697","TLE_LINE1":"1 45087U 20006AV  23138.82144373  .00001407  00000-0  11336-3 0  9990","TLE_LINE2":"2 45087  53.0532 171.9162 0001212  85.6485 274.4643 15.06398937182409","SITE":"AFETR","EPHEMERIS_TYPE":"0","PERIOD":"95.592","RA_OF_ASC_NODE":"171.9162","APOAPSIS":"548.056","ARG_OF_PERICENTER":"85.6485","LAUNCH_DATE":"2020-01-29","NORAD_CAT_ID":"45087","EPOCH":"2023-05-18T19:42:52.738272","FILE":"3911388","MEAN_MOTION":"15.06398937","ECCENTRICITY":"0.00012120","COUNTRY_CODE":"US","PERIAPSIS":"546.377","DECAY_DATE":null,"CENTER_NAME":"EARTH","REF_FRAME":"TEME","BSTAR":"0.00011336000000","MEAN_MOTION_DDOT":"0.0000000000000","CLASSIFICATION_TYPE":"U"},{"REV_AT_EPOCH":"18234","MEAN_MOTION_DOT":"0.00002122","OBJECT_ID":"2020-006AW","MEAN_ANOMALY":"284.4006","RCS_SIZE":"LARGE","OBJECT_TYPE":"PAYLOAD","SEMIMAJOR_AXIS":"6925.346","OBJECT_NAME":"STARLINK-1183","ELEMENT_SET_NO":"999","INCLINATION":"53.0528","TIME_SYSTEM":"UTC","LAUNCH_DATE":"2020-01-29","APOAPSIS":"548.150","ARG_OF_PERICENTER":"75.7133","PERIOD":"95.592","RA_OF_ASC_NODE":"173.6083","SITE":"AFETR","EPHEMERIS_TYPE":"0","TLE_LINE1":"1 45088U 20006AW  23138.44547854  .00002122  00000-0  16132-3 0  9994","TLE_LINE2":"2 45088  53.0528 173.6083 0001355  75.7133 284.4006 15.06400766182345","MEAN_ELEMENT_THEORY":"SGP4","GP_ID":"232081218","MEAN_MOTION_DDOT":"0.0000000000000","CLASSIFICATION_TYPE":"U","CENTER_NAME":"EARTH","REF_FRAME":"TEME","BSTAR":"0.00016132000000","PERIAPSIS":"546.273","DECAY_DATE":null,"ECCENTRICITY":"0.00013550","COUNTRY_CODE":"US","FILE":"3911221","MEAN_MOTION":"15.06400766","NORAD_CAT_ID":"45088","EPOCH":"2023-05-18T10:41:29.345856"},{"MEAN_MOTION_DDOT":"0.0000000000000","CLASSIFICATION_TYPE":"U","BSTAR":"0.00009317600000","REF_FRAME":"TEME","CENTER_NAME":"EARTH","DECAY_DATE":null,"PERIAPSIS":"546.448","ECCENTRICITY":"0.00011280","COUNTRY_CODE":"US","MEAN_MOTION":"15.06394912","FILE":"3911221","EPOCH":"2023-05-18T12:27:39.714624","NORAD_CAT_ID":"45089","LAUNCH_DATE":"2020-01-29","ARG_OF_PERICENTER":"90.2073","APOAPSIS":"548.010","RA_OF_ASC_NODE":"173.3578","PERIOD":"95.592","EPHEMERIS_TYPE":"0","SITE":"AFETR","TLE_LINE1":"1 45089U 20006AX  23138.51920966  .00001107  00000-0  93176-4 0  9998","TLE_LINE2":"2 45089  53.0534 173.3578 0001128  90.2073 269.9046 15.06394912182361","GP_ID":"232081969","MEAN_ELEMENT_THEORY":"SGP4","RCS_SIZE":"LARGE","SEMIMAJOR_AXIS":"6925.364","OBJECT_TYPE":"PAYLOAD","OBJECT_NAME":"STARLINK-1136","INCLINATION":"53.0534","ELEMENT_SET_NO":"999","TIME_SYSTEM":"UTC","REV_AT_EPOCH":"18236","MEAN_MOTION_DOT":"0.00001107","OBJECT_ID":"2020-006AX","MEAN_ANOMALY":"269.9046"},{"ARG_OF_PERICENTER":"82.6851","APOAPSIS":"547.989","LAUNCH_DATE":"2020-01-29","GP_ID":"232110947","MEAN_ELEMENT_THEORY":"SGP4","TLE_LINE2":"2 45090  53.0526 171.8793 0001137  82.6851 277.4267 15.06403863182405","TLE_LINE1":"1 45090U 20006AY  23138.82786290  .00001361  00000-0  11021-3 0  9994","EPHEMERIS_TYPE":"0","SITE":"AFETR","RA_OF_ASC_NODE":"171.8793","PERIOD":"95.592","DECAY_DATE":null,"PERIAPSIS":"546.414","BSTAR":"0.00011021000000","REF_FRAME":"TEME","CENTER_NAME":"EARTH","CLASSIFICATION_TYPE":"U","MEAN_MOTION_DDOT":"0.0000000000000","EPOCH":"2023-05-18T19:52:07.354560","NORAD_CAT_ID":"45090","MEAN_MOTION":"15.06403863","FILE":"3911388","COUNTRY_CODE":"US","ECCENTRICITY":"0.00011370","REV_AT_EPOCH":"18240","MEAN_ANOMALY":"277.4267","OBJECT_ID":"2020-006AY","MEAN_MOTION_DOT":"0.00001361","OBJECT_NAME":"STARLINK-1176","SEMIMAJOR_AXIS":"6925.337","OBJECT_TYPE":"PAYLOAD","RCS_SIZE":"LARGE","TIME_SYSTEM":"UTC","INCLINATION":"53.0526","ELEMENT_SET_NO":"999"},{"MEAN_ELEMENT_THEORY":"SGP4","GP_ID":"232112198","TLE_LINE1":"1 45092U 20006BA  23138.80301059  .00000736  00000-0  68303-4 0  9991","TLE_LINE2":"2 45092  53.0537 172.0002 0001314  97.1169 262.9970 15.06399301182394","SITE":"AFETR","EPHEMERIS_TYPE":"0","PERIOD":"95.592","RA_OF_ASC_NODE":"172.0002","APOAPSIS":"548.126","ARG_OF_PERICENTER":"97.1169","LAUNCH_DATE":"2020-01-29","NORAD_CAT_ID":"45092","EPOCH":"2023-05-18T19:16:20.114976","FILE":"3911388","MEAN_MOTION":"15.06399301","ECCENTRICITY":"0.00013140","COUNTRY_CODE":"US","PERIAPSIS":"546.306","DECAY_DATE":null,"CENTER_NAME":"EARTH","REF_FRAME":"TEME","BSTAR":"0.00006830300000","CLASSIFICATION_TYPE":"U","MEAN_MOTION_DDOT":"0.0000000000000","MEAN_ANOMALY":"262.9970","OBJECT_ID":"2020-006BA","MEAN_MOTION_DOT":"0.00000736","REV_AT_EPOCH":"18239","TIME_SYSTEM":"UTC","ELEMENT_SET_NO":"999","INCLINATION":"53.0537","OBJECT_NAME":"STARLINK-1137","OBJECT_TYPE":"PAYLOAD","SEMIMAJOR_AXIS":"6925.351","RCS_SIZE":"LARGE"},{"ELEMENT_SET_NO":"999","INCLINATION":"53.0539","TIME_SYSTEM":"UTC","RCS_SIZE":"LARGE","OBJECT_TYPE":"PAYLOAD","SEMIMAJOR_AXIS":"6925.348","OBJECT_NAME":"STARLINK-1142","MEAN_MOTION_DOT":"0.00000924","OBJECT_ID":"2020-006BB","MEAN_ANOMALY":"264.9182","REV_AT_EPOCH":"18240","COUNTRY_CODE":"US","ECCENTRICITY":"0.00012120","FILE":"3911388","MEAN_MOTION":"15.06400264","NORAD_CAT_ID":"45093","EPOCH":"2023-05-18T20:46:34.101408","CLASSIFICATION_TYPE":"U","MEAN_MOTION_DDOT":"0.0000000000000","CENTER_NAME":"EARTH","REF_FRAME":"TEME","BSTAR":"0.00008092000000","PERIAPSIS":"546.373","DECAY_DATE":null,"PERIOD":"95.592","RA_OF_ASC_NODE":"171.7231","SITE":"AFETR","EPHEMERIS_TYPE":"0","TLE_LINE1":"1 45093U 20006BB  23138.86567247  .00000924  00000-0  80920-4 0  9999","TLE_LINE2":"2 45093  53.0539 171.7231 0001212  95.1945 264.9182 15.06400264182404","MEAN_ELEMENT_THEORY":"SGP4","GP_ID":"232111948","LAUNCH_DATE":"2020-01-29","APOAPSIS":"548.052","ARG_OF_PERICENTER":"95.1945"}];
